{
  "norad_id": 63466,
  "name": "STARLINK-33654",
  "history": [
    {
      "epoch": "2026-03-28T04:14:04.402176Z",
      "apogee_km": 483.52552347123947,
      "perigee_km": 482.4625970473853,
      "latitude_deg": -1.225202337813701e-06,
      "longitude_deg": -93.71368639280502,
      "height_km": 482.9789223977865,
      "semi_major_axis_km": 6861.131060259312,
      "eccentricity": 7.746e-05,
      "inclination_deg": 42.9999,
      "raan_deg": 155.4053,
      "arg_perigee_deg": 246.8658,
      "mean_anomaly_deg": 113.2112,
      "mean_motion_rev_day": 15.2759838
    },
    {
      "epoch": "2026-03-30T03:18:46.713888Z",
      "apogee_km": 483.4091636304256,
      "perigee_km": 482.57841791427927,
      "latitude_deg": 1.2047614037933167e-05,
      "longitude_deg": -92.89911269660831,
      "height_km": 482.4308490840342,
      "semi_major_axis_km": 6861.130790772352,
      "eccentricity": 6.054e-05,
      "inclination_deg": 43.0021,
      "raan_deg": 144.3296,
      "arg_perigee_deg": 35.4763,
      "mean_anomaly_deg": 324.6129,
      "mean_motion_rev_day": 15.2759847
    },
    {
      "epoch": "2026-03-30T12:43:42.829248Z",
      "apogee_km": 484.0025712234592,
      "perigee_km": 482.02354110126,
      "latitude_deg": -5.8490843368199656e-06,
      "longitude_deg": 123.26417023020079,
      "height_km": 482.69847512232195,
      "semi_major_axis_km": 6861.15005616236,
      "eccentricity": 0.00014422,
      "inclination_deg": 43.0035,
      "raan_deg": 142.1134,
      "arg_perigee_deg": 275.3182,
      "mean_anomaly_deg": 84.7505,
      "mean_motion_rev_day": 15.27592036
    },
    {
      "epoch": "2026-03-30T20:34:30.440064Z",
      "apogee_km": 483.4017096162306,
      "perigee_km": 482.6882839122072,
      "latitude_deg": -3.58157412941116e-06,
      "longitude_deg": 3.3962479158290537,
      "height_km": 482.54792447114227,
      "semi_major_axis_km": 6861.181996764219,
      "eccentricity": 5.199e-05,
      "inclination_deg": 42.9992,
      "raan_deg": 140.2661,
      "arg_perigee_deg": 40.2936,
      "mean_anomaly_deg": 319.7954,
      "mean_motion_rev_day": 15.27581369
    },
    {
      "epoch": "2026-03-31T02:51:07.525440Z",
      "apogee_km": 483.17141746198195,
      "perigee_km": 482.75645807726505,
      "latitude_deg": 6.400926930395756e-05,
      "longitude_deg": -92.49178799305942,
      "height_km": 482.64136562473954,
      "semi_major_axis_km": 6861.100937769623,
      "eccentricity": 3.024e-05,
      "inclination_deg": 43.0001,
      "raan_deg": 138.7903,
      "arg_perigee_deg": 298.2679,
      "mean_anomaly_deg": 61.8143,
      "mean_motion_rev_day": 15.2760844
    },
    {
      "epoch": "2026-04-01T19:39:12.008736Z",
      "apogee_km": 483.35667414042746,
      "perigee_km": 482.7227014144755,
      "latitude_deg": 1.5293160546500045e-06,
      "longitude_deg": 4.212819617347464,
      "height_km": 482.56898189584604,
      "semi_major_axis_km": 6861.176687777451,
      "eccentricity": 4.62e-05,
      "inclination_deg": 42.9979,
      "raan_deg": 129.1893,
      "arg_perigee_deg": 39.2104,
      "mean_anomaly_deg": 320.8781,
      "mean_motion_rev_day": 15.27583142
    },
    {
      "epoch": "2026-04-02T19:11:32.530848Z",
      "apogee_km": 483.4218171288567,
      "perigee_km": 482.63278323433497,
      "latitude_deg": 2.7065805008665928e-05,
      "longitude_deg": 4.621725066951256,
      "height_km": 482.61601447110866,
      "semi_major_axis_km": 6861.1643001815955,
      "eccentricity": 5.75e-05,
      "inclination_deg": 42.9928,
      "raan_deg": 123.6504,
      "arg_perigee_deg": 61.9731,
      "mean_anomaly_deg": 298.1179,
      "mean_motion_rev_day": 15.27587279
    },
    {
      "epoch": "2026-04-02T19:11:32.531712Z",
      "apogee_km": 483.42209157542857,
      "perigee_km": 482.6325087877631,
      "latitude_deg": 2.429203004638981e-05,
      "longitude_deg": 4.621718498278868,
      "height_km": 482.61588553013894,
      "semi_major_axis_km": 6861.1643001815955,
      "eccentricity": 5.754e-05,
      "inclination_deg": 42.9928,
      "raan_deg": 123.6504,
      "arg_perigee_deg": 61.9731,
      "mean_anomaly_deg": 298.1179,
      "mean_motion_rev_day": 15.27587279
    }
  ]
}